[
{
"CCSDS_OMM_VERS": "2.0",
"COMMENT": "GENERATED VIA SPACE-TRACK.ORG API",
"CREATION_DATE": "2025-03-17T19:07:54",
"ORIGINATOR": "18 SPCS",
"OBJECT_NAME": "BEIDOU 3M16",
"OBJECT_ID": "2018-078B",
"CENTER_NAME": "EARTH",
"REF_FRAME": "TEME",
"TIME_SYSTEM": "UTC",
"MEAN_ELEMENT_THEORY": "SGP4",
"EPOCH": "2025-03-17T04:56:36.722112",
"MEAN_MOTION": "1.86232338",
"ECCENTRICITY": "0.00052090",
"INCLINATION": "54.4914",
"RA_OF_ASC_NODE": "315.9592",
"ARG_OF_PERICENTER": "31.1722",
"MEAN_ANOMALY": "328.9114",
"EPHEMERIS_TYPE": "0",
"CLASSIFICATION_TYPE": "U",
"NORAD_CAT_ID": "43648",
"ELEMENT_SET_NO": "999",
"REV_AT_EPOCH": "4366",
"BSTAR": "0.00000000000000",
"MEAN_MOTION_DOT": "-0.00000069",
"MEAN_MOTION_DDOT": "0.0000000000000",
"SEMIMAJOR_AXIS": "27906.055",
"PERIOD": "773.228",
"APOAPSIS": "21542.456",
"PERIAPSIS": "21513.384",
"OBJECT_TYPE": "PAYLOAD",
"RCS_SIZE": "LARGE",
"COUNTRY_CODE": "PRC",
"LAUNCH_DATE": "2018-10-15",
"SITE": "XSC",
"DECAY_DATE": null,
"FILE": "4672105",
"GP_ID": "283335883",
"TLE_LINE0": "0 BEIDOU 3M16",
"TLE_LINE1": "1 43648U 18078B   25076.20598058 -.00000069  00000-0  00000-0 0  9992",
"TLE_LINE2": "2 43648  54.4914 315.9592 0005209  31.1722 328.9114  1.86232338 43663"
},
{
"CCSDS_OMM_VERS": "2.0",
"COMMENT": "GENERATED VIA SPACE-TRACK.ORG API",
"CREATION_DATE": "2025-03-17T19:07:54",
"ORIGINATOR": "18 SPCS",
"OBJECT_NAME": "BEIDOU 13",
"OBJECT_ID": "2012-018B",
"CENTER_NAME": "EARTH",
"REF_FRAME": "TEME",
"TIME_SYSTEM": "UTC",
"MEAN_ELEMENT_THEORY": "SGP4",
"EPOCH": "2025-03-17T04:07:47.999712",
"MEAN_MOTION": "1.86232282",
"ECCENTRICITY": "0.00126580",
"INCLINATION": "56.0415",
"RA_OF_ASC_NODE": "319.4821",
"ARG_OF_PERICENTER": "280.0514",
"MEAN_ANOMALY": "79.8605",
"EPHEMERIS_TYPE": "0",
"CLASSIFICATION_TYPE": "U",
"NORAD_CAT_ID": "38251",
"ELEMENT_SET_NO": "999",
"REV_AT_EPOCH": "8743",
"BSTAR": "0.00000000000000",
"MEAN_MOTION_DOT": "-0.00000072",
"MEAN_MOTION_DDOT": "0.0000000000000",
"SEMIMAJOR_AXIS": "27906.060",
"PERIOD": "773.228",
"APOAPSIS": "21563.249",
"PERIAPSIS": "21492.602",
"OBJECT_TYPE": "PAYLOAD",
"RCS_SIZE": "LARGE",
"COUNTRY_CODE": "PRC",
"LAUNCH_DATE": "2012-04-29",
"SITE": "XSC",
"DECAY_DATE": null,
"FILE": "4672105",
"GP_ID": "283331667",
"TLE_LINE0": "0 BEIDOU 13",
"TLE_LINE1": "1 38251U 12018B   25076.17208333 -.00000072  00000-0  00000-0 0  9998",
"TLE_LINE2": "2 38251  56.0415 319.4821 0012658 280.0514  79.8605  1.86232282 87433"
},
{
"CCSDS_OMM_VERS": "2.0",
"COMMENT": "GENERATED VIA SPACE-TRACK.ORG API",
"CREATION_DATE": "2025-03-16T03:38:40",
"ORIGINATOR": "18 SPCS",
"OBJECT_NAME": "BEIDOU IGSO-7",
"OBJECT_ID": "2018-057A",
"CENTER_NAME": "EARTH",
"REF_FRAME": "TEME",
"TIME_SYSTEM": "UTC",
"MEAN_ELEMENT_THEORY": "SGP4",
"EPOCH": "2025-03-15T16:21:24.369120",
"MEAN_MOTION": "1.00285748",
"ECCENTRICITY": "0.00859770",
"INCLINATION": "55.1580",
"RA_OF_ASC_NODE": "167.0347",
"ARG_OF_PERICENTER": "235.1955",
"MEAN_ANOMALY": "129.2214",
"EPHEMERIS_TYPE": "0",
"CLASSIFICATION_TYPE": "U",
"NORAD_CAT_ID": "43539",
"ELEMENT_SET_NO": "999",
"REV_AT_EPOCH": "2453",
"BSTAR": "0.00000000000000",
"MEAN_MOTION_DOT": "-0.00000131",
"MEAN_MOTION_DDOT": "0.0000000000000",
"SEMIMAJOR_AXIS": "42160.818",
"PERIOD": "1435.897",
"APOAPSIS": "36145.169",
"PERIAPSIS": "35420.197",
"OBJECT_TYPE": "PAYLOAD",
"RCS_SIZE": "LARGE",
"COUNTRY_CODE": "PRC",
"LAUNCH_DATE": "2018-07-09",
"SITE": "XSC",
"DECAY_DATE": null,
"FILE": "4670409",
"GP_ID": "283206122",
"TLE_LINE0": "0 BEIDOU IGSO-7",
"TLE_LINE1": "1 43539U 18057A   25074.68153205 -.00000131  00000-0  00000-0 0  9999",
"TLE_LINE2": "2 43539  55.1580 167.0347 0085977 235.1955 129.2214  1.00285748 24534"
},
{
"REF_FRAME": "TEME",
"TIME_SYSTEM": "UTC",
"MEAN_ELEMENT_THEORY": "SGP4",
"EPOCH": "2025-03-20T17:14:38.604768",
"MEAN_MOTION": "1.00251135",
"ECCENTRICITY": "0.0136716",
"INCLINATION": "54.5715",
"RA_OF_ASC_NODE": "169.7294",
"ARG_OF_PERICENTER": "229.5860",
"MEAN_ANOMALY": "129.3326",
"EPHEMERIS_TYPE": "0",
"CLASSIFICATION_TYPE": "U",
"NORAD_CAT_ID": "37763",
"TLE_LINE0": "0 BEIDOU 9",
"TLE_LINE1": "1 37763U 11038A   25079.71850237 -.00000055  00000-0  00000+0 0  9995",
"TLE_LINE2": "2 37763  54.5715 169.7294 0136716 229.5860 129.3326  1.00251135 50097"
}
]
